[
    {
        "OBJECT_NAME": "CZ-4B R/B",
        "OBJECT_ID": "2003-049C",
        "EPOCH": "2026-05-23T18:01:48.838080",
        "MEAN_MOTION": 14.55079916,
        "ECCENTRICITY": 0.0048202,
        "INCLINATION": 98.6896,
        "RA_OF_ASC_NODE": 141.6263,
        "ARG_OF_PERICENTER": 4.1582,
        "MEAN_ANOMALY": 356.0005,
        "EPHEMERIS_TYPE": 0,
        "CLASSIFICATION_TYPE": "U",
        "NORAD_CAT_ID": 28059,
        "ELEMENT_SET_NO": 999,
        "REV_AT_EPOCH": 19751,
        "BSTAR": 6.6747e-05,
        "MEAN_MOTION_DOT": 2.4e-06,
        "MEAN_MOTION_DDOT": 0
    },
    {
        "OBJECT_NAME": "CZ-2C R/B",
        "OBJECT_ID": "2004-012C",
        "EPOCH": "2026-05-23T17:23:09.462048",
        "MEAN_MOTION": 15.74257718,
        "ECCENTRICITY": 0.0009745,
        "INCLINATION": 97.7097,
        "RA_OF_ASC_NODE": 216.634,
        "ARG_OF_PERICENTER": 36.1731,
        "MEAN_ANOMALY": 324.019,
        "EPHEMERIS_TYPE": 0,
        "CLASSIFICATION_TYPE": "U",
        "NORAD_CAT_ID": 28222,
        "ELEMENT_SET_NO": 999,
        "REV_AT_EPOCH": 21604,
        "BSTAR": 0.00045134,
        "MEAN_MOTION_DOT": 0.00065216,
        "MEAN_MOTION_DDOT": 0
    },
    {
        "OBJECT_NAME": "SL-16 R/B",
        "OBJECT_ID": "2004-021B",
        "EPOCH": "2026-05-23T20:04:25.349664",
        "MEAN_MOTION": 14.14610271,
        "ECCENTRICITY": 0.0007128,
        "INCLINATION": 71.0013,
        "RA_OF_ASC_NODE": 74.7907,
        "ARG_OF_PERICENTER": 280.5306,
        "MEAN_ANOMALY": 79.5013,
        "EPHEMERIS_TYPE": 0,
        "CLASSIFICATION_TYPE": "U",
        "NORAD_CAT_ID": 28353,
        "ELEMENT_SET_NO": 999,
        "REV_AT_EPOCH": 13346,
        "BSTAR": 0.00016896,
        "MEAN_MOTION_DOT": 2.77e-06,
        "MEAN_MOTION_DDOT": 0
    },
    {
        "OBJECT_NAME": "CZ-4B R/B",
        "OBJECT_ID": "2004-035C",
        "EPOCH": "2026-05-23T19:26:28.383072",
        "MEAN_MOTION": 15.301991,
        "ECCENTRICITY": 0.0032767,
        "INCLINATION": 97.3388,
        "RA_OF_ASC_NODE": 177.1639,
        "ARG_OF_PERICENTER": 63.7993,
        "MEAN_ANOMALY": 296.661,
        "EPHEMERIS_TYPE": 0,
        "CLASSIFICATION_TYPE": "U",
        "NORAD_CAT_ID": 28415,
        "ELEMENT_SET_NO": 999,
        "REV_AT_EPOCH": 19139,
        "BSTAR": 0.00022923,
        "MEAN_MOTION_DOT": 6.73e-05,
        "MEAN_MOTION_DDOT": 0
    },
    {
        "OBJECT_NAME": "CZ-2C R/B",
        "OBJECT_ID": "2004-046B",
        "EPOCH": "2026-05-23T17:18:00.461952",
        "MEAN_MOTION": 14.2701945,
        "ECCENTRICITY": 0.0138204,
        "INCLINATION": 98.196,
        "RA_OF_ASC_NODE": 54.0278,
        "ARG_OF_PERICENTER": 293.2443,
        "MEAN_ANOMALY": 65.4238,
        "EPHEMERIS_TYPE": 0,
        "CLASSIFICATION_TYPE": "U",
        "NORAD_CAT_ID": 28480,
        "ELEMENT_SET_NO": 999,
        "REV_AT_EPOCH": 11920,
        "BSTAR": 3.9196e-05,
        "MEAN_MOTION_DOT": 6.3e-07,
        "MEAN_MOTION_DDOT": 0
    },
    {
        "OBJECT_NAME": "ARIANE 5 R/B",
        "OBJECT_ID": "2004-049H",
        "EPOCH": "2026-05-23T17:53:30.666048",
        "MEAN_MOTION": 14.85403861,
        "ECCENTRICITY": 0.0085232,
        "INCLINATION": 98.2708,
        "RA_OF_ASC_NODE": 315.0576,
        "ARG_OF_PERICENTER": 107.6136,
        "MEAN_ANOMALY": 253.4409,
        "EPHEMERIS_TYPE": 0,
        "CLASSIFICATION_TYPE": "U",
        "NORAD_CAT_ID": 28499,
        "ELEMENT_SET_NO": 999,
        "REV_AT_EPOCH": 15693,
        "BSTAR": 7.1783e-05,
        "MEAN_MOTION_DOT": 5.96e-06,
        "MEAN_MOTION_DDOT": 0
    },
    {
        "OBJECT_NAME": "CZ-2D R/B",
        "OBJECT_ID": "2005-024B",
        "EPOCH": "2026-05-23T14:07:04.284192",
        "MEAN_MOTION": 15.66755693,
        "ECCENTRICITY": 0.000665,
        "INCLINATION": 97.3513,
        "RA_OF_ASC_NODE": 161.8396,
        "ARG_OF_PERICENTER": 105.0703,
        "MEAN_ANOMALY": 255.1293,
        "EPHEMERIS_TYPE": 0,
        "CLASSIFICATION_TYPE": "U",
        "NORAD_CAT_ID": 28738,
        "ELEMENT_SET_NO": 999,
        "REV_AT_EPOCH": 15148,
        "BSTAR": 0.00040456,
        "MEAN_MOTION_DOT": 0.0004261,
        "MEAN_MOTION_DDOT": 0
    },
    {
        "OBJECT_NAME": "ALOS (DAICHI)",
        "OBJECT_ID": "2006-002A",
        "EPOCH": "2026-05-23T20:36:30.201696",
        "MEAN_MOTION": 14.69991673,
        "ECCENTRICITY": 0.0002158,
        "INCLINATION": 98.1312,
        "RA_OF_ASC_NODE": 99.5052,
        "ARG_OF_PERICENTER": 76.064,
        "MEAN_ANOMALY": 284.0805,
        "EPHEMERIS_TYPE": 0,
        "CLASSIFICATION_TYPE": "U",
        "NORAD_CAT_ID": 28931,
        "ELEMENT_SET_NO": 999,
        "REV_AT_EPOCH": 8452,
        "BSTAR": 0.00013591,
        "MEAN_MOTION_DOT": 7.65e-06,
        "MEAN_MOTION_DDOT": 0
    },
    {
        "OBJECT_NAME": "H-2A R/B",
        "OBJECT_ID": "2006-002B",
        "EPOCH": "2026-05-23T20:40:22.857024",
        "MEAN_MOTION": 15.17725452,
        "ECCENTRICITY": 0.0050492,
        "INCLINATION": 98.2541,
        "RA_OF_ASC_NODE": 297.5006,
        "ARG_OF_PERICENTER": 346.8851,
        "MEAN_ANOMALY": 13.1064,
        "EPHEMERIS_TYPE": 0,
        "CLASSIFICATION_TYPE": "U",
        "NORAD_CAT_ID": 28932,
        "ELEMENT_SET_NO": 999,
        "REV_AT_EPOCH": 10583,
        "BSTAR": 0.00022656,
        "MEAN_MOTION_DOT": 4.639e-05,
        "MEAN_MOTION_DDOT": 0
    },
    {
        "OBJECT_NAME": "RESURS-DK 1",
        "OBJECT_ID": "2006-021A",
        "EPOCH": "2026-05-23T20:10:31.202688",
        "MEAN_MOTION": 15.13094791,
        "ECCENTRICITY": 0.0005183,
        "INCLINATION": 69.9322,
        "RA_OF_ASC_NODE": 42.5726,
        "ARG_OF_PERICENTER": 321.2494,
        "MEAN_ANOMALY": 38.8299,
        "EPHEMERIS_TYPE": 0,
        "CLASSIFICATION_TYPE": "U",
        "NORAD_CAT_ID": 29228,
        "ELEMENT_SET_NO": 999,
        "REV_AT_EPOCH": 9889,
        "BSTAR": 8.5431e-05,
        "MEAN_MOTION_DOT": 1.407e-05,
        "MEAN_MOTION_DDOT": 0
    },
    {
        "OBJECT_NAME": "CZ-4B R/B",
        "OBJECT_ID": "2006-046C",
        "EPOCH": "2026-05-23T20:35:46.954176",
        "MEAN_MOTION": 15.17567286,
        "ECCENTRICITY": 0.0032838,
        "INCLINATION": 97.5471,
        "RA_OF_ASC_NODE": 188.5421,
        "ARG_OF_PERICENTER": 9.9425,
        "MEAN_ANOMALY": 350.245,
        "EPHEMERIS_TYPE": 0,
        "CLASSIFICATION_TYPE": "U",
        "NORAD_CAT_ID": 29507,
        "ELEMENT_SET_NO": 999,
        "REV_AT_EPOCH": 7144,
        "BSTAR": 0.0001794,
        "MEAN_MOTION_DOT": 3.581e-05,
        "MEAN_MOTION_DDOT": 0
    },
    {
        "OBJECT_NAME": "CZ-2C R/B",
        "OBJECT_ID": "2007-010B",
        "EPOCH": "2026-05-23T19:48:49.199616",
        "MEAN_MOTION": 14.20269508,
        "ECCENTRICITY": 0.006011,
        "INCLINATION": 98.4075,
        "RA_OF_ASC_NODE": 253.3713,
        "ARG_OF_PERICENTER": 76.1718,
        "MEAN_ANOMALY": 284.6138,
        "EPHEMERIS_TYPE": 0,
        "CLASSIFICATION_TYPE": "U",
        "NORAD_CAT_ID": 31114,
        "ELEMENT_SET_NO": 999,
        "REV_AT_EPOCH": 99038,
        "BSTAR": 5.0898e-05,
        "MEAN_MOTION_DOT": 7e-07,
        "MEAN_MOTION_DDOT": 0
    },
    {
        "OBJECT_NAME": "COSMO-SKYMED 1",
        "OBJECT_ID": "2007-023A",
        "EPOCH": "2026-05-23T19:19:38.491104",
        "MEAN_MOTION": 14.96964435,
        "ECCENTRICITY": 0.0001525,
        "INCLINATION": 97.8858,
        "RA_OF_ASC_NODE": 335.4581,
        "ARG_OF_PERICENTER": 97.1973,
        "MEAN_ANOMALY": 262.9422,
        "EPHEMERIS_TYPE": 0,
        "CLASSIFICATION_TYPE": "U",
        "NORAD_CAT_ID": 31598,
        "ELEMENT_SET_NO": 999,
        "REV_AT_EPOCH": 2614,
        "BSTAR": 0.00018319,
        "MEAN_MOTION_DOT": 2.046e-05,
        "MEAN_MOTION_DDOT": 0
    },
    {
        "OBJECT_NAME": "COSMOS 2428",
        "OBJECT_ID": "2007-029A",
        "EPOCH": "2026-05-23T20:39:26.159616",
        "MEAN_MOTION": 14.1293522,
        "ECCENTRICITY": 0.0007668,
        "INCLINATION": 70.9395,
        "RA_OF_ASC_NODE": 45.5527,
        "ARG_OF_PERICENTER": 180.7025,
        "MEAN_ANOMALY": 179.4087,
        "EPHEMERIS_TYPE": 0,
        "CLASSIFICATION_TYPE": "U",
        "NORAD_CAT_ID": 31792,
        "ELEMENT_SET_NO": 999,
        "REV_AT_EPOCH": 97471,
        "BSTAR": -0.00010859,
        "MEAN_MOTION_DOT": -2.5e-06,
        "MEAN_MOTION_DDOT": 0
    },
    {
        "OBJECT_NAME": "SL-16 R/B",
        "OBJECT_ID": "2007-029B",
        "EPOCH": "2026-05-23T20:42:14.155776",
        "MEAN_MOTION": 14.14847749,
        "ECCENTRICITY": 0.0002679,
        "INCLINATION": 70.9766,
        "RA_OF_ASC_NODE": 14.3639,
        "ARG_OF_PERICENTER": 264.9402,
        "MEAN_ANOMALY": 172.9185,
        "EPHEMERIS_TYPE": 0,
        "CLASSIFICATION_TYPE": "U",
        "NORAD_CAT_ID": 31793,
        "ELEMENT_SET_NO": 999,
        "REV_AT_EPOCH": 97600,
        "BSTAR": -0.00012189,
        "MEAN_MOTION_DOT": -2.83e-06,
        "MEAN_MOTION_DDOT": 0
    },
    {
        "OBJECT_NAME": "KORONAS-FOTON",
        "OBJECT_ID": "2009-003A",
        "EPOCH": "2026-05-23T20:42:11.472192",
        "MEAN_MOTION": 15.4514299,
        "ECCENTRICITY": 0.0009159,
        "INCLINATION": 82.4305,
        "RA_OF_ASC_NODE": 197.6224,
        "ARG_OF_PERICENTER": 235.525,
        "MEAN_ANOMALY": 124.5133,
        "EPHEMERIS_TYPE": 0,
        "CLASSIFICATION_TYPE": "U",
        "NORAD_CAT_ID": 33504,
        "ELEMENT_SET_NO": 999,
        "REV_AT_EPOCH": 95734,
        "BSTAR": 0.00019737,
        "MEAN_MOTION_DOT": 9.4e-05,
        "MEAN_MOTION_DDOT": 0
    }
]